[{"OBJECT_NAME":"STARLINK-30764","OBJECT_ID":"2023-166W","EPOCH":"2026-03-09T15:22:28.844832","MEAN_MOTION":15.30193833,"ECCENTRICITY":9.66e-5,"INCLINATION":53.1597,"RA_OF_ASC_NODE":219.7103,"ARG_OF_PERICENTER":89.1937,"MEAN_ANOMALY":270.9174,"EPHEMERIS_TYPE":0,"CLASSIFICATION_TYPE":"U","NORAD_CAT_ID":58170,"ELEMENT_SET_NO":999,"REV_AT_EPOCH":13317,"BSTAR":3.1912e-5,"MEAN_MOTION_DOT":5.86e-6,"MEAN_MOTION_DDOT":0},{"OBJECT_NAME":"TRANSPORTER-1 OBJECT AA","OBJECT_ID":"2021-006AA","EPOCH":"2026-03-09T22:58:14.761920","MEAN_MOTION":15.29982294,"ECCENTRICITY":0.00086604,"INCLINATION":97.2381,"RA_OF_ASC_NODE":112.457,"ARG_OF_PERICENTER":185.709,"MEAN_ANOMALY":174.4054,"EPHEMERIS_TYPE":0,"CLASSIFICATION_TYPE":"U","NORAD_CAT_ID":47437,"ELEMENT_SET_NO":999,"REV_AT_EPOCH":28414,"BSTAR":0.0002197941,"MEAN_MOTION_DOT":6.312e-5,"MEAN_MOTION_DDOT":0}]
